NORAD_CAT_ID,OBJECT_NAME,OBJECT_TYPE,EPOCH,MEAN_MOTION,ECCENTRICITY,INCLINATION,RA_OF_ASC_NODE,ARG_OF_PERICENTER,MEAN_ANOMALY,BSTAR,MEAN_MOTION_DOT,MEAN_MOTION_DDOT,TLE_LINE0,TLE_LINE1,TLE_LINE2,SEMIMAJOR_AXIS,PERIOD,APOGEE,PERIGEE,DECAYED
50817.0,STARLINK-3341,PAYLOAD,2024-07-26 15:41:12,15.08846294,0.0003659,53.2005,302.3882,87.0105,273.1306,0.00012353,1.678e-05,0.0,0 STARLINK-3341,1 50817U 22001Q   24208.65361858  .00001678  00000-0  12353-3 0  9993,2 50817  53.2005 302.3882 0003659  87.0105 273.1306 15.08846294141182,6917.861,95.437,542.257,537.195,0.0
50817.0,STARLINK-3341,PAYLOAD,2024-07-27 15:31:58,15.08852774,0.0001689,53.2169,297.9195,92.9229,267.1956,0.00010151,1.328e-05,0.0,0 STARLINK-3341,1 50817U 22001Q   24209.64720293  .00001328  00000-0  10151-3 0  9991,2 50817  53.2169 297.9195 0001689  92.9229 267.1956 15.08852774141333,6917.841,95.437,540.875,538.538,0.0
50817.0,STARLINK-3341,PAYLOAD,2024-07-27 23:28:53,15.08855362,0.0001499,53.2146,296.4367,89.2873,270.8291,0.000111,1.48e-05,0.0,0 STARLINK-3341,1 50817U 22001Q   24209.97839770  .00001480  00000-0  11100-3 0  9992,2 50817  53.2146 296.4367 0001499  89.2873 270.8291 15.08855362142639,6917.833,95.437,540.735,538.661,0.0
50817.0,STARLINK-3341,PAYLOAD,2024-07-28 12:12:00,15.08832603,0.0001438,53.2173,294.0557,102.0587,258.0566,-8.5643e-05,-1.65e-05,0.0,0 STARLINK-3341,1 50817U 22001Q   24210.50833717 -.00001650  00000-0 -85643-4 0  9993,2 50817  53.2173 294.0557 0001438 102.0587 258.0566 15.08832603142718,6917.903,95.438,540.763,538.773,0.0
50817.0,STARLINK-3341,PAYLOAD,2024-07-28 16:58:09,15.08839848,0.0001372,53.2166,293.164,101.4154,258.6993,-1.9288e-05,-5.95e-06,0.0,0 STARLINK-3341,1 50817U 22001Q   24210.70705083 -.00000595  00000-0 -19288-4 0  9998,2 50817  53.2166 293.1640 0001372 101.4154 258.6993 15.08839848142744,6917.881,95.438,540.695,538.797,0.0
50817.0,STARLINK-3341,PAYLOAD,2024-07-29 12:02:46,15.08843407,0.000115,53.2167,289.5988,84.5709,275.5414,1.2954e-05,-8.2e-07,0.0,0 STARLINK-3341,1 50817U 22001Q   24211.50192924 -.00000082  00000-0  12954-4 0  9994,2 50817  53.2167 289.5988 0001150  84.5709 275.5414 15.08843407141617,6917.87,95.437,540.531,538.939,0.0
50817.0,STARLINK-3341,PAYLOAD,2024-07-29 16:48:55,15.08848209,0.0001229,53.2176,288.7031,95.9729,264.1403,7.0082e-05,8.28e-06,0.0,0 STARLINK-3341,1 50817U 22001Q   24211.70064387  .00000828  00000-0  70082-4 0  9990,2 50817  53.2176 288.7031 0001229  95.9729 264.1403 15.08848209142890,6917.855,95.437,540.571,538.87,0.0
50817.0,STARLINK-3341,PAYLOAD,2024-07-30 11:53:34,15.08829128,0.0001216,53.2166,285.137,95.3607,264.7524,0.00020251,2.936e-05,0.0,0 STARLINK-3341,1 50817U 22001Q   24212.49553796  .00002936  00000-0  20251-3 0  9998,2 50817  53.2166 285.1370 0001216  95.3607 264.7524 15.08829128143015,6917.914,95.438,540.62,538.937,0.0
50817.0,STARLINK-3341,PAYLOAD,2024-07-30 21:25:52,15.08843291,0.0001279,53.2166,283.3531,95.9467,264.167,0.00018221,2.613e-05,0.0,0 STARLINK-3341,1 50817U 22001Q   24212.89297106  .00002613  00000-0  18221-3 0  9998,2 50817  53.2166 283.3531 0001279  95.9467 264.1670 15.08843291143072,6917.87,95.437,540.62,538.851,0.0
50817.0,STARLINK-3341,PAYLOAD,2024-07-31 11:44:22,15.08831841,0.0001344,53.2167,280.6779,90.05,270.0646,-2.767e-05,-7.28e-06,0.0,0 STARLINK-3341,1 50817U 22001Q   24213.48914633 -.00000728  00000-0 -27670-4 0  9991,2 50817  53.2167 280.6779 0001344  90.0500 270.0646 15.08831841143161,6917.905,95.438,540.7,538.841,0.0
50817.0,STARLINK-3341,PAYLOAD,2024-07-31 21:16:40,15.08841941,0.000137,53.2171,278.8933,89.4725,270.6424,5.5339e-05,5.93e-06,0.0,0 STARLINK-3341,1 50817U 22001Q   24213.88657965  .00000593  00000-0  55339-4 0  9998,2 50817  53.2171 278.8933 0001370  89.4725 270.6424 15.08841941143226,6917.874,95.437,540.687,538.792,0.0
50817.0,STARLINK-3341,PAYLOAD,2024-08-01 13:10:31,15.08852666,0.0001426,53.2165,275.9211,93.7072,266.4083,0.0004327,6.608e-05,0.0,0 STARLINK-3341,1 50817U 22001Q   24214.54897679  .00006608  00000-0  43270-3 0  9993,2 50817  53.2165 275.9211 0001426  93.7072 266.4083 15.08852666142073,6917.842,95.437,540.693,538.72,0.0
50817.0,STARLINK-3341,PAYLOAD,2024-08-01 21:07:26,15.08870666,0.0001439,53.2164,274.4332,80.9318,279.1837,0.00087383,0.00013658,0.0,0 STARLINK-3341,1 50817U 22001Q   24214.88017060  .00013658  00000-0  87383-3 0  9994,2 50817  53.2164 274.4332 0001439  80.9318 279.1837 15.08870666143377,6917.787,95.436,540.647,538.656,0.0
50817.0,STARLINK-3341,PAYLOAD,2024-08-02 11:25:54,15.08860898,0.0001527,53.2154,271.7569,84.5573,275.5593,0.00034941,5.28e-05,0.0,0 STARLINK-3341,1 50817U 22001Q   24215.47632774  .00005280  00000-0  34941-3 0  9999,2 50817  53.2154 271.7569 0001527  84.5573 275.5593 15.08860898143464,6917.817,95.436,540.738,538.625,0.0
50817.0,STARLINK-3341,PAYLOAD,2024-08-02 20:58:13,15.08862029,0.0001587,53.215,269.9728,83.9006,276.2167,0.00059993,9.278e-05,0.0,0 STARLINK-3341,1 50817U 22001Q   24215.87376460  .00009278  00000-0  59993-3 0  9995,2 50817  53.2150 269.9728 0001587  83.9006 276.2167 15.08862029142277,6917.813,95.436,540.776,538.58,0.0
50817.0,STARLINK-3341,PAYLOAD,2024-08-03 03:19:46,15.08832803,0.0001565,53.2149,268.7817,97.236,262.881,-0.00023327,-3.998e-05,0.0,0 STARLINK-3341,1 50817U 22001Q   24216.13872779 -.00003998  00000-0 -23327-3 0  9996,2 50817  53.2149 268.7817 0001565  97.2360 262.8810 15.08832803143564,6917.902,95.438,540.85,538.685,0.0
50817.0,STARLINK-3341,PAYLOAD,2024-08-03 11:16:42,15.08828561,0.0001476,53.2146,267.2957,103.2435,256.8722,0.00025898,3.835e-05,0.0,0 STARLINK-3341,1 50817U 22001Q   24216.46993249  .00003835  00000-0  25898-3 0  9991,2 50817  53.2146 267.2957 0001476 103.2435 256.8722 15.08828561142360,6917.915,95.438,540.801,538.759,0.0
50817.0,STARLINK-3341,PAYLOAD,2024-08-04 09:32:06,15.08846988,0.000157,53.2146,263.132,93.7706,266.3466,0.00095941,0.00015017,0.0,0 STARLINK-3341,1 50817U 22001Q   24217.39729826  .00015017  00000-0  95941-3 0  9993,2 50817  53.2146 263.1320 0001570  93.7706 266.3466 15.08846988143756,6917.859,95.437,540.81,538.638,0.0
50817.0,STARLINK-3341,PAYLOAD,2024-08-04 20:39:48,15.08873413,0.0001549,53.2139,261.0501,93.5946,266.5223,0.0016467,0.00026041,0.0,0 STARLINK-3341,1 50817U 22001Q   24217.86097292  .00026041  00000-0  16467-2 0  9994,2 50817  53.2139 261.0501 0001549  93.5946 266.5223 15.08873413142571,6917.778,95.435,540.715,538.572,0.0
50817.0,STARLINK-3341,PAYLOAD,2024-08-05 09:22:53,15.0884903,0.0001403,53.2143,258.6713,94.6405,265.4747,0.00033139,4.991e-05,0.0,0 STARLINK-3341,1 50817U 22001Q   24218.39089290  .00004991  00000-0  33139-3 0  9998,2 50817  53.2143 258.6713 0001403  94.6405 265.4747 15.08849030143909,6917.853,95.437,540.688,538.747,0.0
50817.0,STARLINK-3341,PAYLOAD,2024-08-06 07:38:17,15.08837245,0.0001263,53.2148,254.5072,101.3242,258.7892,0.0004603,7.045e-05,0.0,0 STARLINK-3341,1 50817U 22001Q   24219.31825917  .00007045  00000-0  46030-3 0  9992,2 50817  53.2148 254.5072 0001263 101.3242 258.7892 15.08837245144043,6917.889,95.438,540.628,538.88,0.0
50817.0,STARLINK-3341,PAYLOAD,2024-08-07 02:42:56,15.08813083,0.0001361,53.2149,250.9395,101.5229,258.5916,-0.00019125,-3.328e-05,0.0,0 STARLINK-3341,1 50817U 22001Q   24220.11315555 -.00003328  00000-0 -19125-3 0  9991,2 50817  53.2149 250.9395 0001361 101.5229 258.5916 15.08813083144160,6917.963,95.439,540.769,538.886,0.0
50817.0,STARLINK-3341,PAYLOAD,2024-08-07 07:29:06,15.08817098,0.0001371,53.2147,250.0462,132.3007,227.8102,-6.3863e-05,-1.303e-05,0.0,0 STARLINK-3341,1 50817U 22001Q   24220.31188103 -.00001303  00000-0 -63863-4 0  9990,2 50817  53.2147 250.0462 0001371 132.3007 227.8102 15.08817098142941,6917.95,95.439,540.764,538.867,0.0
50817.0,STARLINK-3341,PAYLOAD,2024-08-08 10:30:39,15.08849989,0.0001295,53.2154,244.9941,103.0229,257.0907,0.00053413,8.225e-05,0.0,0 STARLINK-3341,1 50817U 22001Q   24221.43795216  .00008225  00000-0  53413-3 0  9990,2 50817  53.2154 244.9941 0001295 103.0229 257.0907 15.08849989143111,6917.85,95.437,540.611,538.819,0.0
50817.0,STARLINK-3341,PAYLOAD,2024-08-09 05:35:16,15.0884089,0.0001166,53.2163,241.4236,95.1793,264.9333,0.00066499,0.00010311,0.0,0 STARLINK-3341,1 50817U 22001Q   24222.23283542  .00010311  00000-0  66499-3 0  9990,2 50817  53.2163 241.4236 0001166  95.1793 264.9333 15.08840890144487,6917.878,95.437,540.549,538.936,0.0
50817.0,STARLINK-3341,PAYLOAD,2024-08-09 10:21:26,15.08841444,0.0001065,53.216,240.5315,91.7955,268.3159,0.00060327,9.327e-05,0.0,0 STARLINK-3341,1 50817U 22001Q   24222.43155436  .00009327  00000-0  60327-3 0  9991,2 50817  53.2160 240.5315 0001065  91.7955 268.3159 15.08841444143267,6917.876,95.437,540.478,539.004,0.0
50817.0,STARLINK-3341,PAYLOAD,2024-08-09 18:18:20,15.08859976,0.0001262,53.2162,239.0452,80.1996,279.9139,0.00012712,1.737e-05,0.0,0 STARLINK-3341,1 50817U 22001Q   24222.76274076  .00001737  00000-0  12712-3 0  9991,2 50817  53.2162 239.0452 0001262  80.1996 279.9139 15.08859976144569,6917.819,95.436,540.557,538.811,0.0
50817.0,STARLINK-3341,PAYLOAD,2024-08-10 07:01:26,15.08841,0.0001333,53.2156,236.6638,82.0573,278.057,-0.00020651,-3.573e-05,0.0,0 STARLINK-3341,1 50817U 22001Q   24223.29266740 -.00003573  00000-0 -20651-3 0  9992,2 50817  53.2156 236.6638 0001333  82.0573 278.0570 15.08841000144649,6917.877,95.437,540.664,538.82,0.0
50817.0,STARLINK-3341,PAYLOAD,2024-08-11 10:02:58,15.08855891,0.0001219,53.2148,231.6092,83.3078,276.8052,0.0002364,3.478e-05,0.0,0 STARLINK-3341,1 50817U 22001Q   24224.41873818  .00003478  00000-0  23640-3 0  9990,2 50817  53.2148 231.6092 0001219  83.3078 276.8052 15.08855891144819,6917.832,95.437,540.54,538.854,0.0
50817.0,STARLINK-3341,PAYLOAD,2024-08-11 17:59:54,15.08858174,0.000131,53.215,230.1225,84.2165,275.8976,0.00041721,6.361e-05,0.0,0 STARLINK-3341,1 50817U 22001Q   24224.74993737  .00006361  00000-0  41721-3 0  9993,2 50817  53.2150 230.1225 0001310  84.2165 275.8976 15.08858174143611,6917.825,95.436,540.596,538.784,0.0
